#aV2021  3 30  0  0  0.00000000     288 DD+AD WGS84 FIT  NGA
## 2151 172800.00000000   300.00000000 59303 0.0000000000000
+   32     1  2  3  4  5  6  7  8  9 10 11 12 13 14 15 16 17
+         18 19 20 21 22 23 24 25 26 27 28 29 30 31 32  0  0
+          0  0  0  0  0  0  0  0  0  0  0  0  0  0  0  0  0
+          0  0  0  0  0  0  0  0  0  0  0  0  0  0  0  0  0
+          0  0  0  0  0  0  0  0  0  0  0  0  0  0  0  0  0
++         2  2  2  2  2  2  2  2  2  2  2  2  2  2  2  2  2
++         2  2  2  2  2  2  2  2  2  2  2  2  2  2  2  0  0
++         0  0  0  0  0  0  0  0  0  0  0  0  0  0  0  0  0
++         0  0  0  0  0  0  0  0  0  0  0  0  0  0  0  0  0
++         0  0  0  0  0  0  0  0  0  0  0  0  0  0  0  0  0
%c cc cc ccc ccc cccc cccc cccc cccc ccccc ccccc ccccc ccccc
%c cc cc ccc ccc cccc cccc cccc cccc ccccc ccccc ccccc ccccc
%f  0.0000000  0.000000000  0.00000000000  0.000000000000000
%f  0.0000000  0.000000000  0.00000000000  0.000000000000000
%i    0    0    0    0      0      0      0      0         0
%i    0    0    0    0      0      0      0      0         0
/*      NGA, ST. LOUIS,MO.                                  
/*   EPHEMERIS COMPUTED FROM 2 DAYS OF DATA                 
/*   EPOCHA v5 SMOOTHER                                     
/*   G2139 IERS2010 SATIGS SATAPC                           
*  2021  3 30  3 25  0.00000000
P  1   3178.931556  14478.908884 -22284.491679    729.253591                    
V  1 -26969.667315   6002.563865    389.936530     -0.093171                    
P  2  19507.944551 -14514.693403  11388.103031   -590.919601                    
V  2  13484.280643  -2003.385012 -27197.628883     -0.035523                    
P  3  10826.108891  21963.906699 -10501.686585   -122.264513                    
V  3 -10622.767976  -8081.600419 -27958.068706     -0.108816                    
P  4    130.405453  24094.114231  11123.826164   -189.069265                    
V  4  -6826.216606  12619.754250 -27322.034399     -0.021100                    
P  5   4829.113331 -15741.612339  20654.656717    -37.626473                    
V  5  19666.780404  17979.004289   9218.864228     -0.010684                    
P  6  25928.433545  -5893.511259   -387.068956      3.722699                    
V  6    -76.195936   2128.327486 -32201.214457      0.023910                    
P  7  17887.722187   9042.992279  18005.086140    106.066275                    
V  7 -21160.684871   6277.776433  17729.688450      0.120295                    
P  8  -4929.346687  25734.773917  -3171.445955    -15.609847                    
V  8  -3813.996154   3144.528334  31774.845680     -0.013712                    
P  9   8847.759029  16893.432512  18418.532444   -335.067198                    
V  9  -7908.953200  22229.728273 -16559.659773     -0.029169                    
P 10 -21051.099346  -7964.144788 -14194.615966    -91.424492                    
V 10 -11152.768741 -14373.944840  24147.165813     -0.078357                    
P 11   -822.183724  19629.965444 -18477.445499     15.203680                    
V 11 -18201.944930  13529.874663  15189.994859      0.106691                    
P 12  -6523.895715 -22261.589529 -13327.478754    -20.906768                    
V 12  11749.918021  11606.207477 -25478.220337     -0.050695                    
P 13  13273.281048 -22500.162680   4265.828683    113.751181                    
V 13    135.336840   6193.081059  31393.535402      0.045097                    
P 14  20791.235645   9408.574876 -13616.594889     98.871781                    
V 14   9574.509055  14552.627809  24676.151991     -0.014259                    
P 15   1707.511548 -26079.405142  -3838.685938   -159.703477                    
V 15   4757.555035  -3745.223878  30752.590471      0.026041                    
P 16  -8832.954787  12372.278379  21483.236742   -301.727279                    
V 16 -17749.512362 -21514.411912   5484.905458     -0.058530                    
P 17  15370.826777   -861.089696 -21216.260284    418.001456                    
V 17  -9038.892142  26391.289889  -7471.856851      0.063209                    
P 18 -20465.082530  -6600.082607  15623.875758    351.355364                    
V 18  18988.280044  -5925.093781  22301.996379      0.004278                    
P 19  17123.729188  -9222.111720 -18325.309479    -19.729405                    
V 19  -7614.508657  21397.200257 -18263.507776      0.050144                    
P 20 -19379.875225 -18116.369850   2967.095962    523.695387                    
V 20   5023.593894   -247.807426  30746.407988     -0.003785                    
P 21  -5424.191307  16159.279701 -19523.360719    107.067791                    
V 21 -25764.755224   6550.679902  12591.193223      0.029376                    
P 22   3600.608408  19905.881584 -17103.122670   -649.539154                    
V 22 -18087.825847 -12908.916215 -18435.931423      0.084246                    
P 23 -20636.913758 -16092.319967  -4692.274498    115.908263                    
V 23  -2307.138485  -6064.846468  31034.667940     -0.014985                    
P 24   2225.005116 -16689.504828 -20709.438614      0.427274                    
V 24  25079.014363  -6662.092681   8554.581683     -0.004378                    
P 25 -17351.069856 -20241.259509  -1919.076894    108.646747                    
V 25   3295.013478   -229.445838 -31462.727011      0.073771                    
P 26 -16378.068843   4735.738626  20371.298828     65.082364                    
V 26 -17980.511191 -18797.606853  -9792.516123      0.052640                    
P 27 -12297.146522  21755.652127   8253.475410   -103.346100                    
V 27    706.605252 -11058.334643  29960.748514     -0.069950                    
P 28  19606.880222   8236.128202 -15232.782127    594.613846                    
V 28  10979.423997  17316.301425  22860.187850     -0.057885                    
P 29  -7379.649856 -16649.383605  19272.762868   -320.901337                    
V 29   9658.970660 -22563.897076 -15795.645816     -0.067393                    
P 30  25512.726197    505.124619   7836.433834   -405.633948                    
V 30  -8998.572763   5081.449367  28932.227571     -0.053718                    
P 31 -25749.568948   7103.739353   2281.166018   -108.574105                    
V 31  -3423.044651  -1881.007531 -31181.990031     -0.022319                    
P 32 -16108.933418   3119.462202 -20746.740115     21.848866                    
V 32   6534.212942 -25835.920415  -9079.777090      0.003524                    
EOF
